[{"OBJECT_NAME":"KUIPER-00046","OBJECT_ID":"2025-134G","EPOCH":"2026-03-06T12:18:50.643360","MEAN_MOTION":14.79925191,"ECCENTRICITY":6.192e-5,"INCLINATION":51.8976,"RA_OF_ASC_NODE":257.0983,"ARG_OF_PERICENTER":96.8411,"MEAN_ANOMALY":263.2622,"EPHEMERIS_TYPE":0,"CLASSIFICATION_TYPE":"U","NORAD_CAT_ID":64506,"ELEMENT_SET_NO":999,"REV_AT_EPOCH":3946,"BSTAR":0.00060915669,"MEAN_MOTION_DOT":4.425e-5,"MEAN_MOTION_DDOT":0},{"OBJECT_NAME":"KUIPER-00047","OBJECT_ID":"2025-134H","EPOCH":"2026-03-05T17:15:03.437856","MEAN_MOTION":14.77252472,"ECCENTRICITY":0.00025274,"INCLINATION":51.8979,"RA_OF_ASC_NODE":233.3304,"ARG_OF_PERICENTER":128.0216,"MEAN_ANOMALY":232.0974,"EPHEMERIS_TYPE":0,"CLASSIFICATION_TYPE":"U","NORAD_CAT_ID":64507,"ELEMENT_SET_NO":999,"REV_AT_EPOCH":3972,"BSTAR":0.00067956208,"MEAN_MOTION_DOT":4.649e-5,"MEAN_MOTION_DDOT":0},{"OBJECT_NAME":"KUIPER-00048","OBJECT_ID":"2025-134J","EPOCH":"2026-03-06T19:30:27.989280","MEAN_MOTION":14.79938713,"ECCENTRICITY":8.89e-5,"INCLINATION":51.8979,"RA_OF_ASC_NODE":228.2987,"ARG_OF_PERICENTER":106.3393,"MEAN_ANOMALY":253.7668,"EPHEMERIS_TYPE":0,"CLASSIFICATION_TYPE":"U","NORAD_CAT_ID":64508,"ELEMENT_SET_NO":999,"REV_AT_EPOCH":3989,"BSTAR":1.4301e-5,"MEAN_MOTION_DOT":-1.12e-6,"MEAN_MOTION_DDOT":0},{"OBJECT_NAME":"KUIPER-00049","OBJECT_ID":"2025-134K","EPOCH":"2026-03-06T10:38:08.142720","MEAN_MOTION":14.83314009,"ECCENTRICITY":0.00017416,"INCLINATION":51.8986,"RA_OF_ASC_NODE":243.237,"ARG_OF_PERICENTER":127.1143,"MEAN_ANOMALY":232.9981,"EPHEMERIS_TYPE":0,"CLASSIFICATION_TYPE":"U","NORAD_CAT_ID":64509,"ELEMENT_SET_NO":999,"REV_AT_EPOCH":3965,"BSTAR":0.0006750249,"MEAN_MOTION_DOT":5.357e-5,"MEAN_MOTION_DDOT":0},{"OBJECT_NAME":"KUIPER-00050","OBJECT_ID":"2025-134L","EPOCH":"2026-03-05T19:42:20.705472","MEAN_MOTION":14.97214526,"ECCENTRICITY":0.00042849,"INCLINATION":51.8886,"RA_OF_ASC_NODE":229.5337,"ARG_OF_PERICENTER":308.1735,"MEAN_ANOMALY":51.8848,"EPHEMERIS_TYPE":0,"CLASSIFICATION_TYPE":"U","NORAD_CAT_ID":64510,"ELEMENT_SET_NO":999,"REV_AT_EPOCH":3979,"BSTAR":0.00069646737,"MEAN_MOTION_DOT":7.897e-5,"MEAN_MOTION_DDOT":0},{"OBJECT_NAME":"KUIPER-00051","OBJECT_ID":"2025-134M","EPOCH":"2026-03-06T12:33:23.031936","MEAN_MOTION":14.8374218,"ECCENTRICITY":4.991e-5,"INCLINATION":51.9027,"RA_OF_ASC_NODE":239.866,"ARG_OF_PERICENTER":66.7261,"MEAN_ANOMALY":293.3755,"EPHEMERIS_TYPE":0,"CLASSIFICATION_TYPE":"U","NORAD_CAT_ID":64511,"ELEMENT_SET_NO":999,"REV_AT_EPOCH":3970,"BSTAR":0.0006956751,"MEAN_MOTION_DOT":5.587e-5,"MEAN_MOTION_DDOT":0},{"OBJECT_NAME":"KUIPER-00053","OBJECT_ID":"2025-134P","EPOCH":"2026-03-06T11:12:39.617280","MEAN_MOTION":14.79926554,"ECCENTRICITY":9.371e-5,"INCLINATION":51.9011,"RA_OF_ASC_NODE":237.3455,"ARG_OF_PERICENTER":153.45,"MEAN_ANOMALY":206.6511,"EPHEMERIS_TYPE":0,"CLASSIFICATION_TYPE":"U","NORAD_CAT_ID":64513,"ELEMENT_SET_NO":999,"REV_AT_EPOCH":3973,"BSTAR":0.00065916916,"MEAN_MOTION_DOT":4.807e-5,"MEAN_MOTION_DDOT":0},{"OBJECT_NAME":"KUIPER-00054","OBJECT_ID":"2025-134Q","EPOCH":"2026-03-06T04:51:47.344320","MEAN_MOTION":14.79950845,"ECCENTRICITY":2.284e-5,"INCLINATION":51.8969,"RA_OF_ASC_NODE":233.4869,"ARG_OF_PERICENTER":129.2223,"MEAN_ANOMALY":230.876,"EPHEMERIS_TYPE":0,"CLASSIFICATION_TYPE":"U","NORAD_CAT_ID":64514,"ELEMENT_SET_NO":999,"REV_AT_EPOCH":3976,"BSTAR":0.00071602157,"MEAN_MOTION_DOT":5.244e-5,"MEAN_MOTION_DDOT":0},{"OBJECT_NAME":"KUIPER-00055","OBJECT_ID":"2025-134R","EPOCH":"2026-03-06T14:46:40.831968","MEAN_MOTION":15.20417817,"ECCENTRICITY":9.53e-5,"INCLINATION":51.8883,"RA_OF_ASC_NODE":194.2506,"ARG_OF_PERICENTER":9.3923,"MEAN_ANOMALY":350.7074,"EPHEMERIS_TYPE":0,"CLASSIFICATION_TYPE":"U","NORAD_CAT_ID":64515,"ELEMENT_SET_NO":999,"REV_AT_EPOCH":4035,"BSTAR":0.0011135,"MEAN_MOTION_DOT":0.00024359,"MEAN_MOTION_DDOT":0},{"OBJECT_NAME":"KUIPER-00056","OBJECT_ID":"2025-134S","EPOCH":"2026-03-06T20:27:38.579904","MEAN_MOTION":14.83513921,"ECCENTRICITY":0.000121,"INCLINATION":51.9018,"RA_OF_ASC_NODE":235.8047,"ARG_OF_PERICENTER":33.4593,"MEAN_ANOMALY":326.6448,"EPHEMERIS_TYPE":0,"CLASSIFICATION_TYPE":"U","NORAD_CAT_ID":64516,"ELEMENT_SET_NO":999,"REV_AT_EPOCH":3979,"BSTAR":0.0008389,"MEAN_MOTION_DOT":6.748e-5,"MEAN_MOTION_DDOT":0},{"OBJECT_NAME":"KUIPER-00057","OBJECT_ID":"2025-134T","EPOCH":"2026-03-06T12:14:47.693472","MEAN_MOTION":14.8372954,"ECCENTRICITY":0.00040544,"INCLINATION":51.8997,"RA_OF_ASC_NODE":244.8194,"ARG_OF_PERICENTER":262.0523,"MEAN_ANOMALY":97.9981,"EPHEMERIS_TYPE":0,"CLASSIFICATION_TYPE":"U","NORAD_CAT_ID":64517,"ELEMENT_SET_NO":999,"REV_AT_EPOCH":3963,"BSTAR":0.00071172982,"MEAN_MOTION_DOT":5.72e-5,"MEAN_MOTION_DDOT":0},{"OBJECT_NAME":"KUIPER-00058","OBJECT_ID":"2025-134U","EPOCH":"2026-03-05T17:19:17.144544","MEAN_MOTION":14.79956006,"ECCENTRICITY":6.02e-5,"INCLINATION":51.9005,"RA_OF_ASC_NODE":243.0799,"ARG_OF_PERICENTER":112.8441,"MEAN_ANOMALY":247.2585,"EPHEMERIS_TYPE":0,"CLASSIFICATION_TYPE":"U","NORAD_CAT_ID":64518,"ELEMENT_SET_NO":999,"REV_AT_EPOCH":3959,"BSTAR":0.00072484345,"MEAN_MOTION_DOT":5.312e-5,"MEAN_MOTION_DDOT":0},{"OBJECT_NAME":"KUIPER-00059","OBJECT_ID":"2025-134V","EPOCH":"2026-03-06T11:16:34.379040","MEAN_MOTION":14.7992751,"ECCENTRICITY":0.00011322,"INCLINATION":51.8998,"RA_OF_ASC_NODE":234.8239,"ARG_OF_PERICENTER":147.6006,"MEAN_ANOMALY":212.5026,"EPHEMERIS_TYPE":0,"CLASSIFICATION_TYPE":"U","NORAD_CAT_ID":64519,"ELEMENT_SET_NO":999,"REV_AT_EPOCH":3977,"BSTAR":0.00067067311,"MEAN_MOTION_DOT":4.895e-5,"MEAN_MOTION_DDOT":0},{"OBJECT_NAME":"KUIPER-00060","OBJECT_ID":"2025-134W","EPOCH":"2026-03-06T20:27:45.982656","MEAN_MOTION":14.83577395,"ECCENTRICITY":0.0001592,"INCLINATION":51.9032,"RA_OF_ASC_NODE":233.2789,"ARG_OF_PERICENTER":68.2432,"MEAN_ANOMALY":291.8701,"EPHEMERIS_TYPE":0,"CLASSIFICATION_TYPE":"U","NORAD_CAT_ID":64520,"ELEMENT_SET_NO":999,"REV_AT_EPOCH":3981,"BSTAR":0.0008075,"MEAN_MOTION_DOT":6.496e-5,"MEAN_MOTION_DDOT":0},{"OBJECT_NAME":"KUIPER-00061","OBJECT_ID":"2025-134X","EPOCH":"2026-03-06T12:42:07.388352","MEAN_MOTION":14.79906168,"ECCENTRICITY":0.0001216,"INCLINATION":51.8996,"RA_OF_ASC_NODE":242.0657,"ARG_OF_PERICENTER":103.9588,"MEAN_ANOMALY":256.151,"EPHEMERIS_TYPE":0,"CLASSIFICATION_TYPE":"U","NORAD_CAT_ID":64521,"ELEMENT_SET_NO":999,"REV_AT_EPOCH":3966,"BSTAR":0.00066950623,"MEAN_MOTION_DOT":4.883e-5,"MEAN_MOTION_DDOT":0},{"OBJECT_NAME":"KUIPER-00062","OBJECT_ID":"2025-134Y","EPOCH":"2026-03-06T12:38:11.413536","MEAN_MOTION":14.79916897,"ECCENTRICITY":0.00016995,"INCLINATION":51.8936,"RA_OF_ASC_NODE":244.6097,"ARG_OF_PERICENTER":248.3974,"MEAN_ANOMALY":111.6808,"EPHEMERIS_TYPE":0,"CLASSIFICATION_TYPE":"U","NORAD_CAT_ID":64522,"ELEMENT_SET_NO":999,"REV_AT_EPOCH":3964,"BSTAR":0.00097248034,"MEAN_MOTION_DOT":7.197e-5,"MEAN_MOTION_DDOT":0},{"OBJECT_NAME":"KUIPER-00063","OBJECT_ID":"2025-134Z","EPOCH":"2026-03-06T20:00:00.999360","MEAN_MOTION":14.80354886,"ECCENTRICITY":6.38e-5,"INCLINATION":51.901,"RA_OF_ASC_NODE":250.7341,"ARG_OF_PERICENTER":51.1402,"MEAN_ANOMALY":185.2944,"EPHEMERIS_TYPE":0,"CLASSIFICATION_TYPE":"U","NORAD_CAT_ID":64523,"ELEMENT_SET_NO":999,"REV_AT_EPOCH":565,"BSTAR":0.00083082,"MEAN_MOTION_DOT":6.182e-5,"MEAN_MOTION_DDOT":0}]
