KUIPER-00046            
1 64506U 25134G   26065.51308615  .00004425  00000+0  60916-3 0  9993
2 64506  51.8976 257.0983 0000619  96.8411 263.2622 14.79925191 39461
KUIPER-00047            
1 64507U 25134H   26064.71878979  .00004649  00000+0  67956-3 0  9999
2 64507  51.8979 233.3304 0002527 128.0216 232.0974 14.77252472 39726
KUIPER-00048            
1 64508U 25134J   26065.81282395 -.00000112  00000+0  14301-4 0  9992
2 64508  51.8979 228.2987 0000889 106.3393 253.7668 14.79938713 39890
KUIPER-00049            
1 64509U 25134K   26065.44314980  .00005357  00000+0  67502-3 0  9993
2 64509  51.8986 243.2370 0001741 127.1143 232.9981 14.83314009 39656
KUIPER-00050            
1 64510U 25134L   26064.82107298  .00007897  00000+0  69647-3 0  9991
2 64510  51.8886 229.5337 0004284 308.1735  51.8848 14.97214526 39793
KUIPER-00051            
1 64511U 25134M   26065.52318324  .00005587  00000+0  69568-3 0  9990
2 64511  51.9027 239.8660 0000499  66.7261 293.3755 14.83742180 39708
KUIPER-00053            
1 64513U 25134P   26065.46712520  .00004807  00000+0  65917-3 0  9999
2 64513  51.9011 237.3455 0000937 153.4500 206.6511 14.79926554 39739
KUIPER-00054            
1 64514U 25134Q   26065.20263130  .00005244  00000+0  71602-3 0  9994
2 64514  51.8969 233.4869 0000228 129.2223 230.8760 14.79950845 39761
KUIPER-00055            
1 64515U 25134R   26065.61575037  .00024359  00000+0  11135-2 0  9994
2 64515  51.8883 194.2506 0000953   9.3923 350.7074 15.20417817 40350
KUIPER-00056            
1 64516U 25134S   26065.85252986  .00006748  00000+0  83890-3 0  9996
2 64516  51.9018 235.8047 0001210  33.4593 326.6448 14.83513921 39796
KUIPER-00057            
1 64517U 25134T   26065.51027423  .00005720  00000+0  71173-3 0  9996
2 64517  51.8997 244.8194 0004054 262.0523  97.9981 14.83729540 39636
KUIPER-00058            
1 64518U 25134U   26064.72172621  .00005312  00000+0  72484-3 0  9993
2 64518  51.9005 243.0799 0000602 112.8441 247.2585 14.79956006 39595
KUIPER-00059            
1 64519U 25134V   26065.46984235  .00004895  00000+0  67067-3 0  9994
2 64519  51.8998 234.8239 0001132 147.6006 212.5026 14.79927510 39778
KUIPER-00060            
1 64520U 25134W   26065.85261554  .00006496  00000+0  80750-3 0  9994
2 64520  51.9032 233.2789 0001592  68.2432 291.8701 14.83577395 39816
KUIPER-00061            
1 64521U 25134X   26065.52925218  .00004883  00000+0  66951-3 0  9998
2 64521  51.8996 242.0657 0001216 103.9588 256.1510 14.79906168 39663
KUIPER-00062            
1 64522U 25134Y   26065.52652099  .00007197  00000+0  97248-3 0  9997
2 64522  51.8936 244.6097 0001699 248.3974 111.6808 14.79916897 39645
KUIPER-00063            
1 64523U 25134Z   26065.83334490  .00006182  00000+0  83082-3 0  9998
2 64523  51.9010 250.7341 0000638  51.1402 185.2944 14.80354886  5656
